NORAD_CAT_ID,OBJECT_NAME,OBJECT_TYPE,EPOCH,MEAN_MOTION,ECCENTRICITY,INCLINATION,RA_OF_ASC_NODE,ARG_OF_PERICENTER,MEAN_ANOMALY,BSTAR,MEAN_MOTION_DOT,MEAN_MOTION_DDOT,TLE_LINE0,TLE_LINE1,TLE_LINE2,SEMIMAJOR_AXIS,PERIOD,APOGEE,PERIGEE,DECAYED
53176.0,STARLINK-4294,PAYLOAD,2024-02-16 22:26:19,15.08850316,0.0001406,53.2159,283.7886,97.7555,262.3597,9.3018e-05,1.193e-05,0.0,0 STARLINK-4294,1 53176U 22083AW  24047.93494326  .00001193  00000-0  93018-4 0  9993,2 53176  53.2159 283.7886 0001406  97.7555 262.3597 15.08850316 88074,6917.849,95.437,540.687,538.741,0.0
53176.0,STARLINK-4294,PAYLOAD,2024-02-17 19:06:20,15.08838506,0.0001381,53.2173,279.9233,94.8655,265.2494,4.9651e-05,5.02e-06,0.0,0 STARLINK-4294,1 53176U 22083AW  24048.79607099  .00000502  00000-0  49651-4 0  9998,2 53176  53.2173 279.9233 0001381  94.8655 265.2494 15.08838506 88844,6917.885,95.438,540.705,538.795,0.0
53176.0,STARLINK-4294,PAYLOAD,2024-02-17 22:17:06,15.08834359,0.0001345,53.2175,279.3309,92.138,267.9766,0.00010173,1.331e-05,0.0,0 STARLINK-4294,1 53176U 22083AW  24048.92855237  .00001331  00000-0  10173-3 0  9999,2 53176  53.2175 279.3309 0001345  92.1380 267.9766 15.08834359 88225,6917.898,95.438,540.693,538.832,0.0
53176.0,STARLINK-4294,PAYLOAD,2024-02-18 07:49:25,15.08838073,0.000122,53.2158,277.5438,83.504,276.6091,2.9542e-05,1.82e-06,0.0,0 STARLINK-4294,1 53176U 22083AW  24049.32599213  .00000182  00000-0  29542-4 0  9997,2 53176  53.2158 277.5438 0001220  83.5040 276.6091 15.08838073 88289,6917.886,95.438,540.595,538.907,0.0
53176.0,STARLINK-4294,PAYLOAD,2024-02-18 22:07:53,15.08842659,0.0001372,53.2166,274.8711,101.8738,258.2408,2.2844e-05,7.6e-07,0.0,0 STARLINK-4294,1 53176U 22083AW  24049.92215018  .00000076  00000-0  22844-4 0  9991,2 53176  53.2166 274.8711 0001372 101.8738 258.2408 15.08842659 88371,6917.872,95.437,540.686,538.788,0.0
53176.0,STARLINK-4294,PAYLOAD,2024-02-18 23:43:16,15.0884433,0.0001345,53.2164,274.5719,95.8592,264.2553,4.5361e-05,4.34e-06,0.0,0 STARLINK-4294,1 53176U 22083AW  24049.98838843  .00000434  00000-0  45361-4 0  9991,2 53176  53.2164 274.5719 0001345  95.8592 264.2553 15.08844330 89023,6917.867,95.437,540.663,538.802,0.0
53176.0,STARLINK-4294,PAYLOAD,2024-02-19 07:40:12,15.08837425,0.0001353,53.2164,273.0851,89.9584,270.1564,9.0645e-05,1.155e-05,0.0,0 STARLINK-4294,1 53176U 22083AW  24050.31959248  .00001155  00000-0  90645-4 0  9999,2 53176  53.2164 273.0851 0001353  89.9584 270.1564 15.08837425 89078,6917.888,95.438,540.689,538.817,0.0
53176.0,STARLINK-4294,PAYLOAD,2024-02-19 20:23:18,15.08829306,0.0001405,53.2165,270.7064,87.3588,272.7565,6.8051e-05,7.95e-06,0.0,0 STARLINK-4294,1 53176U 22083AW  24050.84952012  .00000795  00000-0  68051-4 0  9994,2 53176  53.2165 270.7064 0001405  87.3588 272.7565 15.08829306 89150,6917.913,95.438,540.75,538.806,0.0
53176.0,STARLINK-4294,PAYLOAD,2024-02-19 23:34:04,15.08834116,0.0001463,53.2175,270.1132,93.4021,266.7139,6.6851e-05,7.76e-06,0.0,0 STARLINK-4294,1 53176U 22083AW  24050.98199731  .00000776  00000-0  66851-4 0  9995,2 53176  53.2175 270.1132 0001463  93.4021 266.7139 15.08834116 88531,6917.898,95.438,540.775,538.751,0.0
53176.0,STARLINK-4294,PAYLOAD,2024-02-20 18:38:41,15.08846219,0.0001562,53.2179,266.5453,94.5759,265.5411,0.0001313,1.803e-05,0.0,0 STARLINK-4294,1 53176U 22083AW  24051.77686898  .00001803  00000-0  13130-3 0  9991,2 53176  53.2179 266.5453 0001562  94.5759 265.5411 15.08846219 89291,6917.861,95.437,540.807,538.646,0.0
53176.0,STARLINK-4294,PAYLOAD,2024-02-20 21:49:27,15.08848988,0.0001484,53.2172,265.9494,90.1197,269.9965,0.00012374,1.682e-05,0.0,0 STARLINK-4294,1 53176U 22083AW  24051.90934669  .00001682  00000-0  12374-3 0  9992,2 53176  53.2172 265.9494 0001484  90.1197 269.9965 15.08848988 88671,6917.853,95.437,540.745,538.691,0.0
53176.0,STARLINK-4294,PAYLOAD,2024-02-21 13:43:19,15.08839014,0.0001492,53.2165,262.9775,86.1805,273.9357,9.6868e-05,1.254e-05,0.0,0 STARLINK-4294,1 53176U 22083AW  24052.57175202  .00001254  00000-0  96868-4 0  9992,2 53176  53.2165 262.9775 0001492  86.1805 273.9357 15.08839014 88773,6917.883,95.438,540.781,538.716,0.0
53176.0,STARLINK-4294,PAYLOAD,2024-02-21 20:04:52,15.08834431,0.0001455,53.2167,261.7855,88.7032,271.4126,6.9248e-05,8.14e-06,0.0,0 STARLINK-4294,1 53176U 22083AW  24052.83671722  .00000814  00000-0  69248-4 0  9992,2 53176  53.2167 261.7855 0001455  88.7032 271.4126 15.08834431 89451,6917.897,95.438,540.769,538.756,0.0
53176.0,STARLINK-4294,PAYLOAD,2024-02-21 21:40:15,15.08839022,0.0001427,53.2165,261.4878,87.0286,273.0869,3.4303e-05,2.58e-06,0.0,0 STARLINK-4294,1 53176U 22083AW  24052.90295502  .00000258  00000-0  34303-4 0  9994,2 53176  53.2165 261.4878 0001427  87.0286 273.0869 15.08839022 88826,6917.883,95.438,540.736,538.761,0.0
53176.0,STARLINK-4294,PAYLOAD,2024-02-22 07:12:34,15.08840187,0.0001455,53.2164,259.7031,84.5301,275.5857,2.8717e-05,1.69e-06,0.0,0 STARLINK-4294,1 53176U 22083AW  24053.30039435  .00000169  00000-0  28717-4 0  9993,2 53176  53.2164 259.7031 0001455  84.5301 275.5857 15.08840187 88881,6917.88,95.438,540.751,538.738,0.0
53176.0,STARLINK-4294,PAYLOAD,2024-02-22 19:55:38,15.08831082,0.0001355,53.2162,257.3241,96.366,263.7487,0.00022962,3.368e-05,0.0,0 STARLINK-4294,1 53176U 22083AW  24053.83031118  .00003368  00000-0  22962-3 0  9990,2 53176  53.2162 257.3241 0001355  96.3660 263.7487 15.08831082 88965,6917.908,95.438,540.71,538.835,0.0
53176.0,STARLINK-4294,PAYLOAD,2024-02-23 07:03:20,15.08849274,0.0001464,53.2158,255.2422,91.5179,268.598,-3.5264e-05,-8.49e-06,0.0,0 STARLINK-4294,1 53176U 22083AW  24054.29398676 -.00000849  00000-0 -35264-4 0  9999,2 53176  53.2158 255.2422 0001464  91.5179 268.5980 15.08849274 89673,6917.852,95.437,540.73,538.704,0.0
53176.0,STARLINK-4294,PAYLOAD,2024-02-23 19:46:25,15.08840532,0.0001484,53.2158,252.8628,92.2507,267.8655,9.1433e-05,1.168e-05,0.0,0 STARLINK-4294,1 53176U 22083AW  24054.82390969  .00001168  00000-0  91433-4 0  9998,2 53176  53.2158 252.8628 0001484  92.2507 267.8655 15.08840532 89757,6917.879,95.438,540.77,538.717,0.0
53176.0,STARLINK-4294,PAYLOAD,2024-02-24 13:15:40,15.08837146,0.0001569,53.2159,249.5901,95.9113,264.2058,-1.7953e-07,-2.91e-06,0.0,0 STARLINK-4294,1 53176U 22083AW  24055.55255547 -.00000291  00000-0 -17953-6 0  9996,2 53176  53.2159 249.5901 0001569  95.9113 264.2058 15.08837146 89229,6917.889,95.438,540.84,538.669,0.0
53176.0,STARLINK-4294,PAYLOAD,2024-02-24 19:37:13,15.08839787,0.0001517,53.2158,248.402,93.2519,266.8647,2.4258e-05,9.8e-07,0.0,0 STARLINK-4294,1 53176U 22083AW  24055.81751342  .00000098  00000-0  24258-4 0  9996,2 53176  53.2158 248.4020 0001517  93.2519 266.8647 15.08839787 89261,6917.881,95.438,540.795,538.697,0.0
53176.0,STARLINK-4294,PAYLOAD,2024-02-25 13:06:27,15.08848882,0.0001455,53.214,245.1293,92.7054,267.4105,1.5992e-05,-3.3e-07,0.0,0 STARLINK-4294,1 53176U 22083AW  24056.54614716 -.00000033  00000-0  15992-4 0  9995,2 53176  53.2140 245.1293 0001455  92.7054 267.4105 15.08848882 89371,6917.853,95.437,540.725,538.712,0.0
53176.0,STARLINK-4294,PAYLOAD,2024-02-25 19:27:59,15.08849974,0.0001303,53.2163,243.9426,92.6158,267.4983,0.00014202,1.974e-05,0.0,0 STARLINK-4294,1 53176U 22083AW  24056.81110319  .00001974  00000-0  14202-3 0  9991,2 53176  53.2163 243.9426 0001303  92.6158 267.4983 15.08849974 90050,6917.85,95.437,540.616,538.814,0.0
53176.0,STARLINK-4294,PAYLOAD,2024-02-26 17:43:26,15.08813592,0.000134,53.2164,239.7798,91.9714,268.1431,-0.00012654,-2.3e-05,0.0,0 STARLINK-4294,1 53176U 22083AW  24057.73849696 -.00002300  00000-0 -12654-3 0  9995,2 53176  53.2164 239.7798 0001340  91.9714 268.1431 15.08813592 90195,6917.961,95.439,540.753,538.899,0.0
53176.0,STARLINK-4294,PAYLOAD,2024-02-26 22:29:35,15.08816655,0.0001284,53.216,238.8874,87.2639,272.85,-8.8915e-05,-1.702e-05,0.0,0 STARLINK-4294,1 53176U 22083AW  24057.93721766 -.00001702  00000-0 -88915-4 0  9993,2 53176  53.2160 238.8874 0001284  87.2639 272.8500 15.08816655 89580,6917.952,95.439,540.705,538.928,0.0
53176.0,STARLINK-4294,PAYLOAD,2024-02-27 11:12:40,15.08821134,0.0001225,53.2155,236.5076,77.5561,282.5568,-0.0001566,-2.778e-05,0.0,0 STARLINK-4294,1 53176U 22083AW  24058.46713227 -.00002778  00000-0 -15660-3 0  9995,2 53176  53.2155 236.5076 0001225  77.5561 282.5568 15.08821134 90306,6917.938,95.439,540.651,538.956,0.0
53176.0,STARLINK-4294,PAYLOAD,2024-02-27 19:09:35,15.08829603,0.0001293,53.2151,235.0216,81.3765,278.7373,-1.9288e-05,-5.95e-06,0.0,0 STARLINK-4294,1 53176U 22083AW  24058.79833124 -.00000595  00000-0 -19288-4 0  9996,2 53176  53.2151 235.0216 0001293  81.3765 278.7373 15.08829603 90351,6917.912,95.438,540.672,538.883,0.0
53176.0,STARLINK-4294,PAYLOAD,2024-02-27 20:44:58,15.08833301,0.0001333,53.2157,234.724,88.5232,271.5913,4.6064e-05,4.45e-06,0.0,0 STARLINK-4294,1 53176U 22083AW  24058.86456991  .00000445  00000-0  46064-4 0  9991,2 53176  53.2157 234.7240 0001333  88.5232 271.5913 15.08833301 89723,6917.901,95.438,540.688,538.844,0.0
53176.0,STARLINK-4294,PAYLOAD,2024-02-28 11:03:27,15.08836343,0.0001383,53.2153,232.0467,78.0865,282.0283,0.00059034,9.119e-05,0.0,0 STARLINK-4294,1 53176U 22083AW  24059.46073819  .00009119  00000-0  59034-3 0  9999,2 53176  53.2153 232.0467 0001383  78.0865 282.0283 15.08836343 89818,6917.892,95.438,540.713,538.8,0.0
53176.0,STARLINK-4294,PAYLOAD,2024-02-28 19:00:23,15.0885759,0.0001395,53.2151,230.5602,77.2002,282.9146,0.00089827,0.00014044,0.0,0 STARLINK-4294,1 53176U 22083AW  24059.79193357  .00014044  00000-0  89827-3 0  9991,2 53176  53.2151 230.5602 0001395  77.2002 282.9146 15.08857590 90509,6917.827,95.436,540.657,538.727,0.0
53176.0,STARLINK-4294,PAYLOAD,2024-02-29 10:54:13,15.08865191,0.0001479,53.2152,227.587,75.7494,284.3663,0.00064919,0.00010066,0.0,0 STARLINK-4294,1 53176U 22083AW  24060.45432583  .00010066  00000-0  64919-3 0  9998,2 53176  53.2152 227.5870 0001479  75.7494 284.3663 15.08865191 90601,6917.803,95.436,540.692,538.645,0.0
